0 FENGYUN 1C DEB
1 29802U 99025CU  13284.02502639  .00003026  00000-0  13814-2 0  2499
2 29802 098.8915 304.8988 0071381 067.1762 345.9129 14.20957422348714
0 FENGYUN 1C DEB
1 29802U 99025CU  13286.77156007  .00002631  00000-0  12037-2 0  2506
2 29802 098.8908 307.6629 0071196 059.3329 355.6937 14.20970660349103
0 FENGYUN 1C DEB
1 29802U 99025CU  13288.95668615  .00003816  00000-0  17358-2 0  2519
2 29802 098.8898 309.8619 0071065 053.0830 013.7299 14.20984691349413
0 FENGYUN 1C DEB
1 29802U 99025CU  13291.51065838  .00003036  00000-0  13854-2 0  2525
2 29802 098.8894 312.4316 0070858 045.7411 118.7769 14.21000946349775
0 FENGYUN 1C DEB
1 29802U 99025CU  13293.61439671  .00003531  00000-0  16077-2 0  2539
2 29802 098.8893 314.5483 0070723 039.6899 080.7250 14.21011132350072
0 FENGYUN 1C DEB
1 29802U 99025CU  13295.65634259  .00003554  00000-0  16175-2 0  2549
2 29802 098.8897 316.6027 0070570 033.7838 086.6790 14.21024616350368
